ONEWEB-0256             
1 48974U 21060H   23279.90836397 -.00000005  00000+0 -45965-4 0  9998
2 48974  87.9026  64.6914 0001835  99.9465 260.1873 13.16594602110113
ONEWEB-0257             
1 48975U 21060J   23279.86614831  .00000099  00000+0  22429-3 0  9991
2 48975  87.9030  64.6707 0001906  95.3916 264.7432 13.16594105111355
ONEWEB-0258             
1 48976U 21060K   23279.86824704  .00000084  00000+0  18513-3 0  9997
2 48976  87.9032  64.6991 0001667  92.0756 268.0566 13.16592816110073
ONEWEB-0259             
1 48977U 21060L   23280.46989203  .00000082  00000+0  18147-3 0  9993
2 48977  87.9032  64.5640 0001560  82.8597 277.2711 13.16593078111476
ONEWEB-0260             
1 48978U 21060M   23280.46357004  .00000087  00000+0  19280-3 0  9996
2 48978  87.9031  64.5961 0002473 102.9764 257.1643 13.16594499111442
ONEWEB-0261             
1 48979U 21060N   23279.97380921  .00000004  00000+0 -22589-4 0  9992
2 48979  87.9117  64.6781 0002130  84.4898 275.6476 13.16594032111454
ONEWEB-0262             
1 48980U 21060P   23279.87880409  .00000025  00000+0  32239-4 0  9994
2 48980  87.9032  64.6687 0001646  75.3685 284.7628 13.16591614110105
ONEWEB-0263             
1 48981U 21060Q   23279.91047820  .00000025  00000+0  31940-4 0  9990
2 48981  87.9025  64.6782 0001946  79.1115 281.0234 13.16592083110077
